{
    "links": {
        "self": "http://www.neowsapp.com/rest/v1/neo/3596041?api_key=iIulBulltgU6a56xZRHN4H3l9WmuAYTsLGpBGhQ2"
    },
    "id": "3596041",
    "neo_reference_id": "3596041",
    "name": "(2012 BH14)",
    "designation": "2012 BH14",
    "nasa_jpl_url": "http://ssd.jpl.nasa.gov/sbdb.cgi?sstr=3596041",
    "absolute_magnitude_h": 24.3,
    "estimated_diameter": {
        "kilometers": {
            "estimated_diameter_min": 0.0366906138,
            "estimated_diameter_max": 0.0820427065
        },
        "meters": {
            "estimated_diameter_min": 36.6906137531,
            "estimated_diameter_max": 82.0427064882
        },
        "miles": {
            "estimated_diameter_min": 0.0227984834,
            "estimated_diameter_max": 0.0509789586
        },
        "feet": {
            "estimated_diameter_min": 120.3760332259,
            "estimated_diameter_max": 269.1689931548
        }
    },
    "is_potentially_hazardous_asteroid": false,
    "close_approach_data": [
        {
            "close_approach_date": "2012-01-18",
            "close_approach_date_full": "2012-Jan-18 03:32",
            "epoch_date_close_approach": 1326857520000,
            "relative_velocity": {
                "kilometers_per_second": "13.1790739208",
                "kilometers_per_hour": "47444.6661150514",
                "miles_per_hour": "29480.270453544"
            },
            "miss_distance": {
                "astronomical": "0.1680499015",
                "lunar": "65.3714116835",
                "kilometers": "25139907.318109805",
                "miles": "15621214.042153109"
            },
            "orbiting_body": "Earth"
        }
    ],
    "orbital_data": {
        "orbit_id": "5",
        "orbit_determination_date": "2017-04-06 08:51:19",
        "first_observation_date": "2012-01-20",
        "last_observation_date": "2012-01-25",
        "data_arc_in_days": 5,
        "observations_used": 15,
        "orbit_uncertainty": "9",
        "minimum_orbit_intersection": ".166795",
        "jupiter_tisserand_invariant": "4.885",
        "epoch_osculation": "2455948.5",
        "eccentricity": ".1205394836147205",
        "semi_major_axis": "1.30484525392027",
        "inclination": "25.4803586446995",
        "ascending_node_longitude": "297.8273471313786",
        "orbital_period": "544.4235990655081",
        "perihelion_distance": "1.147559880815602",
        "perihelion_argument": "166.6873262818299",
        "aphelion_distance": "1.462130627024938",
        "perihelion_time": "2455928.529318193547",
        "mean_anomaly": "13.20560949720698",
        "mean_motion": ".6612498073520923",
        "equinox": "J2000",
        "orbit_class": {
            "orbit_class_type": "AMO",
            "orbit_class_description": "Near-Earth asteroid orbits similar to that of 1221 Amor",
            "orbit_class_range": "1.017 AU < q (perihelion) < 1.3 AU"
        }
    },
    "is_sentry_object": false
}